start=new Date('2021-09-08T00:00:00.000Z').valueOf();
sats=[{"RCS_SIZE":"LARGE","OBJECT_TYPE":"PAYLOAD","SITE":"AFETR","EPOCH":"2021-09-07T20:52:49.578528","DECAY_DATE":null,"OBJECT_ID":"2020-055J","MEAN_MOTION_DDOT":"0.0000000000000","PERIOD":"95.593","COUNTRY_CODE":"US","REV_AT_EPOCH":"6113","MEAN_ELEMENT_THEORY":"SGP4","ELEMENT_SET_NO":"999","FILE":"3110443","EPHEMERIS_TYPE":"0","RA_OF_ASC_NODE":"306.0228","MEAN_MOTION":"15.06388183","TLE_LINE2":"2 46035  53.0539 306.0228 0000694  99.1254 260.9813 15.06388183 61138","TLE_LINE1":"1 46035U 20055J   21250.87001827 -.00000554  00000-0 -18314-4 0  9990","OBJECT_NAME":"STARLINK-1558","REF_FRAME":"TEME","TIME_SYSTEM":"UTC","LAUNCH_DATE":"2020-08-07","INCLINATION":"53.0539","MEAN_ANOMALY":"260.9813","ARG_OF_PERICENTER":"99.1254","ECCENTRICITY":"0.00006940","NORAD_CAT_ID":"46035","SEMIMAJOR_AXIS":"6925.385","BSTAR":"-0.00001831400000","MEAN_MOTION_DOT":"-0.00000554","CLASSIFICATION_TYPE":"U","GP_ID":"184281600","PERIAPSIS":"546.769","APOAPSIS":"547.730","CENTER_NAME":"EARTH"},{"PERIAPSIS":"546.626","APOAPSIS":"547.803","CENTER_NAME":"EARTH","MEAN_MOTION_DOT":"-0.00000444","CLASSIFICATION_TYPE":"U","GP_ID":"184281852","SEMIMAJOR_AXIS":"6925.350","BSTAR":"-0.00001093400000","ECCENTRICITY":"0.00008500","NORAD_CAT_ID":"46036","INCLINATION":"53.0535","MEAN_ANOMALY":"256.4281","ARG_OF_PERICENTER":"103.6803","TIME_SYSTEM":"UTC","LAUNCH_DATE":"2020-08-07","REF_FRAME":"TEME","OBJECT_NAME":"STARLINK-1560","TLE_LINE1":"1 46036U 20055K   21250.85526342 -.00000444  00000-0 -10934-4 0  9991","MEAN_MOTION":"15.06399659","TLE_LINE2":"2 46036  53.0535 306.0891 0000850 103.6803 256.4281 15.06399659 61135","RA_OF_ASC_NODE":"306.0891","FILE":"3110443","EPHEMERIS_TYPE":"0","ELEMENT_SET_NO":"999","PERIOD":"95.592","MEAN_MOTION_DDOT":"0.0000000000000","MEAN_ELEMENT_THEORY":"SGP4","COUNTRY_CODE":"US","REV_AT_EPOCH":"6113","RCS_SIZE":"LARGE","SITE":"AFETR","EPOCH":"2021-09-07T20:31:34.759488","OBJECT_TYPE":"PAYLOAD","DECAY_DATE":null,"OBJECT_ID":"2020-055K"},{"RCS_SIZE":"LARGE","OBJECT_TYPE":"PAYLOAD","SITE":"AFETR","EPOCH":"2021-09-07T20:26:17.773440","OBJECT_ID":"2020-055L","DECAY_DATE":null,"MEAN_MOTION_DDOT":"0.0000000000000","PERIOD":"95.592","COUNTRY_CODE":"US","REV_AT_EPOCH":"6112","MEAN_ELEMENT_THEORY":"SGP4","ELEMENT_SET_NO":"999","FILE":"3110443","EPHEMERIS_TYPE":"0","RA_OF_ASC_NODE":"306.1046","TLE_LINE2":"2 46037  53.0552 306.1046 0000949 117.8942 242.2143 15.06405729 61123","MEAN_MOTION":"15.06405729","TLE_LINE1":"1 46037U 20055L   21250.85159460 -.00000704  00000-0 -28374-4 0  9991","OBJECT_NAME":"STARLINK-1565","REF_FRAME":"TEME","TIME_SYSTEM":"UTC","LAUNCH_DATE":"2020-08-07","INCLINATION":"53.0552","MEAN_ANOMALY":"242.2143","ARG_OF_PERICENTER":"117.8942","ECCENTRICITY":"0.00009490","NORAD_CAT_ID":"46037","SEMIMAJOR_AXIS":"6925.331","BSTAR":"-0.00002837400000","CLASSIFICATION_TYPE":"U","MEAN_MOTION_DOT":"-0.00000704","GP_ID":"184282602","PERIAPSIS":"546.539","APOAPSIS":"547.853","CENTER_NAME":"EARTH"},{"TLE_LINE1":"1 46038U 20055M   21250.86633104 -.00000535  00000-0 -17057-4 0  9993","OBJECT_NAME":"STARLINK-1567","RA_OF_ASC_NODE":"306.0419","MEAN_MOTION":"15.06406230","TLE_LINE2":"2 46038  53.0554 306.0419 0000839 114.8013 245.3063 15.06406230 61126","ELEMENT_SET_NO":"999","EPHEMERIS_TYPE":"0","FILE":"3110443","RCS_SIZE":"LARGE","OBJECT_ID":"2020-055M","DECAY_DATE":null,"OBJECT_TYPE":"PAYLOAD","SITE":"AFETR","EPOCH":"2021-09-07T20:47:31.001856","PERIOD":"95.592","MEAN_MOTION_DDOT":"0.0000000000000","REV_AT_EPOCH":"6112","COUNTRY_CODE":"US","MEAN_ELEMENT_THEORY":"SGP4","CLASSIFICATION_TYPE":"U","MEAN_MOTION_DOT":"-0.00000535","GP_ID":"184281350","PERIAPSIS":"546.613","APOAPSIS":"547.775","CENTER_NAME":"EARTH","ECCENTRICITY":"0.00008390","NORAD_CAT_ID":"46038","SEMIMAJOR_AXIS":"6925.329","BSTAR":"-0.00001705700000","MEAN_ANOMALY":"245.3063","INCLINATION":"53.0554","ARG_OF_PERICENTER":"114.8013","REF_FRAME":"TEME","TIME_SYSTEM":"UTC","LAUNCH_DATE":"2020-08-07"},{"APOAPSIS":"547.845","CENTER_NAME":"EARTH","PERIAPSIS":"546.553","GP_ID":"184281101","MEAN_MOTION_DOT":"-0.00000463","CLASSIFICATION_TYPE":"U","BSTAR":"-0.00001217200000","SEMIMAJOR_AXIS":"6925.334","NORAD_CAT_ID":"46039","ECCENTRICITY":"0.00009330","ARG_OF_PERICENTER":"120.0707","INCLINATION":"53.0548","MEAN_ANOMALY":"240.0374","LAUNCH_DATE":"2020-08-07","TIME_SYSTEM":"UTC","REF_FRAME":"TEME","OBJECT_NAME":"STARLINK-1569","TLE_LINE1":"1 46039U 20055N   21250.87370620 -.00000463  00000-0 -12172-4 0  9999","MEAN_MOTION":"15.06404746","TLE_LINE2":"2 46039  53.0548 306.0088 0000933 120.0707 240.0374 15.06404746 61123","RA_OF_ASC_NODE":"306.0088","FILE":"3110443","EPHEMERIS_TYPE":"0","ELEMENT_SET_NO":"999","COUNTRY_CODE":"US","MEAN_ELEMENT_THEORY":"SGP4","REV_AT_EPOCH":"6112","MEAN_MOTION_DDOT":"0.0000000000000","PERIOD":"95.592","OBJECT_TYPE":"PAYLOAD","SITE":"AFETR","EPOCH":"2021-09-07T20:58:08.215680","OBJECT_ID":"2020-055N","DECAY_DATE":null,"RCS_SIZE":"LARGE"},{"NORAD_CAT_ID":"46040","ECCENTRICITY":"0.00008410","BSTAR":"-0.00001254300000","SEMIMAJOR_AXIS":"6925.357","GP_ID":"184282352","CLASSIFICATION_TYPE":"U","MEAN_MOTION_DOT":"-0.00000468","CENTER_NAME":"EARTH","APOAPSIS":"547.805","PERIAPSIS":"546.640","REF_FRAME":"TEME","LAUNCH_DATE":"2020-08-07","TIME_SYSTEM":"UTC","ARG_OF_PERICENTER":"122.0996","MEAN_ANOMALY":"238.0075","INCLINATION":"53.0554","RA_OF_ASC_NODE":"307.0650","MEAN_MOTION":"15.06397136","TLE_LINE2":"2 46040  53.0554 307.0650 0000841 122.0996 238.0075 15.06397136 61059","TLE_LINE1":"1 46040U 20055P   21250.63780107 -.00000468  00000-0 -12543-4 0  9997","OBJECT_NAME":"STARLINK-1576","DECAY_DATE":null,"OBJECT_ID":"2020-055P","EPOCH":"2021-09-07T15:18:26.012448","SITE":"AFETR","OBJECT_TYPE":"PAYLOAD","RCS_SIZE":"LARGE","COUNTRY_CODE":"US","MEAN_ELEMENT_THEORY":"SGP4","REV_AT_EPOCH":"6105","MEAN_MOTION_DDOT":"0.0000000000000","PERIOD":"95.592","ELEMENT_SET_NO":"999","EPHEMERIS_TYPE":"0","FILE":"3110443"},{"OBJECT_NAME":"STARLINK-1580","TLE_LINE1":"1 46041U 20055Q   21250.57419322 -.00000099  00000-0  12207-4 0  9995","TLE_LINE2":"2 46041  53.0546 307.3500 0000721 103.1646 256.9423 15.06406485 61051","MEAN_MOTION":"15.06406485","RA_OF_ASC_NODE":"307.3500","EPHEMERIS_TYPE":"0","FILE":"3110443","ELEMENT_SET_NO":"999","MEAN_MOTION_DDOT":"0.0000000000000","PERIOD":"95.592","MEAN_ELEMENT_THEORY":"SGP4","COUNTRY_CODE":"US","REV_AT_EPOCH":"6105","RCS_SIZE":"LARGE","OBJECT_ID":"2020-055Q","DECAY_DATE":null,"EPOCH":"2021-09-07T13:46:50.294208","SITE":"AFETR","OBJECT_TYPE":"PAYLOAD","PERIAPSIS":"546.694","APOAPSIS":"547.693","CENTER_NAME":"EARTH","MEAN_MOTION_DOT":"-0.00000099","CLASSIFICATION_TYPE":"U","GP_ID":"184282103","SEMIMAJOR_AXIS":"6925.329","BSTAR":"0.00001220700000","ECCENTRICITY":"0.00007210","NORAD_CAT_ID":"46041","MEAN_ANOMALY":"256.9423","INCLINATION":"53.0546","ARG_OF_PERICENTER":"103.1646","TIME_SYSTEM":"UTC","LAUNCH_DATE":"2020-08-07","REF_FRAME":"TEME"},{"TLE_LINE1":"1 46042U 20055R   21250.88843565  .00001431  00000-0  11490-3 0  9992","OBJECT_NAME":"STARLINK-1581","RA_OF_ASC_NODE":"305.9368","MEAN_MOTION":"15.06402273","TLE_LINE2":"2 46042  53.0552 305.9368 0000828  96.1341 263.9742 15.06402273 61093","ELEMENT_SET_NO":"999","FILE":"3110443","EPHEMERIS_TYPE":"0","RCS_SIZE":"LARGE","SITE":"AFETR","OBJECT_TYPE":"PAYLOAD","EPOCH":"2021-09-07T21:19:20.840160","DECAY_DATE":null,"OBJECT_ID":"2020-055R","MEAN_MOTION_DDOT":"0.0000000000000","PERIOD":"95.592","COUNTRY_CODE":"US","REV_AT_EPOCH":"6109","MEAN_ELEMENT_THEORY":"SGP4","CLASSIFICATION_TYPE":"U","MEAN_MOTION_DOT":"0.00001431","GP_ID":"184280851","PERIAPSIS":"546.633","APOAPSIS":"547.780","CENTER_NAME":"EARTH","ECCENTRICITY":"0.00008280","NORAD_CAT_ID":"46042","SEMIMAJOR_AXIS":"6925.342","BSTAR":"0.00011490000000","INCLINATION":"53.0552","MEAN_ANOMALY":"263.9742","ARG_OF_PERICENTER":"96.1341","REF_FRAME":"TEME","TIME_SYSTEM":"UTC","LAUNCH_DATE":"2020-08-07"},{"MEAN_ANOMALY":"248.7359","INCLINATION":"53.0552","ARG_OF_PERICENTER":"111.3711","TIME_SYSTEM":"UTC","LAUNCH_DATE":"2020-08-07","REF_FRAME":"TEME","PERIAPSIS":"546.719","APOAPSIS":"547.778","CENTER_NAME":"EARTH","CLASSIFICATION_TYPE":"U","MEAN_MOTION_DOT":"-0.00000757","GP_ID":"184281601","SEMIMAJOR_AXIS":"6925.383","BSTAR":"-0.00003192900000","ECCENTRICITY":"0.00007640","NORAD_CAT_ID":"46043","EPHEMERIS_TYPE":"0","FILE":"3110443","ELEMENT_SET_NO":"999","MEAN_MOTION_DDOT":"0.0000000000000","PERIOD":"95.593","MEAN_ELEMENT_THEORY":"SGP4","COUNTRY_CODE":"US","REV_AT_EPOCH":"6112","RCS_SIZE":"LARGE","DECAY_DATE":null,"OBJECT_ID":"2020-055S","OBJECT_TYPE":"PAYLOAD","SITE":"AFETR","EPOCH":"2021-09-07T21:08:44.867904","OBJECT_NAME":"STARLINK-1582","TLE_LINE1":"1 46043U 20055S   21250.88107486 -.00000757  00000-0 -31929-4 0  9990","TLE_LINE2":"2 46043  53.0552 305.9696 0000764 111.3711 248.7359 15.06388607 61121","MEAN_MOTION":"15.06388607","RA_OF_ASC_NODE":"305.9696"},{"FILE":"3110443","EPHEMERIS_TYPE":"0","ELEMENT_SET_NO":"999","COUNTRY_CODE":"US","MEAN_ELEMENT_THEORY":"SGP4","REV_AT_EPOCH":"6113","PERIOD":"95.592","MEAN_MOTION_DDOT":"0.0000000000000","SITE":"AFETR","OBJECT_TYPE":"PAYLOAD","EPOCH":"2021-09-07T21:29:58.771968","OBJECT_ID":"2020-055T","DECAY_DATE":null,"RCS_SIZE":"LARGE","OBJECT_NAME":"STARLINK-1584","TLE_LINE1":"1 46044U 20055T   21250.89581912 -.00000364  00000-0 -55719-5 0  9990","TLE_LINE2":"2 46044  53.0545 305.8991 0000939  99.4833 260.6262 15.06394846 61135","MEAN_MOTION":"15.06394846","RA_OF_ASC_NODE":"305.8991","ARG_OF_PERICENTER":"99.4833","INCLINATION":"53.0545","MEAN_ANOMALY":"260.6262","LAUNCH_DATE":"2020-08-07","TIME_SYSTEM":"UTC","REF_FRAME":"TEME","CENTER_NAME":"EARTH","APOAPSIS":"547.880","PERIAPSIS":"546.579","GP_ID":"184281853","MEAN_MOTION_DOT":"-0.00000364","CLASSIFICATION_TYPE":"U","BSTAR":"-0.00000557190000","SEMIMAJOR_AXIS":"6925.364","NORAD_CAT_ID":"46044","ECCENTRICITY":"0.00009390"}];
